OBJECT_NAME,OBJECT_ID,EPOCH,MEAN_MOTION,ECCENTRICITY,INCLINATION,RA_OF_ASC_NODE,ARG_OF_PERICENTER,MEAN_ANOMALY,EPHEMERIS_TYPE,CLASSIFICATION_TYPE,NORAD_CAT_ID,ELEMENT_SET_NO,REV_AT_EPOCH,BSTAR,MEAN_MOTION_DOT,MEAN_MOTION_DDOT
SIRION PATHFINDER-2,2018-099B,2026-05-12T00:54:59.958144,15.14209722,.00102818,97.4283,181.9589,70.4828,289.7514,0,U,43759,999,40715,.15899065E-3,.2842E-4,0
CORVUS BC4,2018-099K,2026-05-12T01:29:42.241344,15.12194262,.00098638,97.4099,176.1031,121.2302,238.9897,0,U,43767,999,40694,.1755595E-3,.297E-4,0
M2 PATHFINDER,2020-037E,2026-05-12T06:24:48.373056,15.04516963,.00101784,97.8166,323.0973,274.9871,85.0192,0,U,45727,999,32009,.13055907E-3,.1766E-4,0
NETSAT-4,2020-068U,2026-05-12T06:25:19.135776,15.42654533,.00076405,97.8618,137.6580,92.2632,267.9489,0,U,46504,999,31023,.25303064E-3,.1094E-3,0
NETSAT-3,2020-068V,2026-05-12T05:53:46.103136,15.41423826,.00075282,97.8668,135.8982,104.9461,255.2619,0,U,46505,999,31014,.27085284E-3,.11245E-3,0
NETSAT-1,2020-068W,2026-05-12T06:18:02.249856,15.33752446,.00067221,97.8752,130.6611,124.0395,236.1485,0,U,46506,999,30979,.25388918E-3,.8205E-4,0
NETSAT-2,2020-068X,2026-05-12T06:55:05.771136,15.44454364,.00061794,97.8634,137.4542,112.8559,247.3341,0,U,46507,999,31019,.3062745E-3,.14094E-3,0
GREENCUBE (IO-117),2022-080E,2026-05-11T22:06:15.720192,6.42583324,.00088641,70.1440,310.8630,297.9634,62.0128,0,U,53109,999,8973,0,-.3E-7,0
SITRO-AIS 5 (KATYS),2023-091L,2026-05-12T06:31:44.065056,15.28615198,.00106673,97.5083,195.8504,222.3983,137.6433,0,U,57176,999,15885,.25707995E-3,.709E-4,0
SITRO-AIS 6 (CHIRKIN),2023-091AC,2026-05-12T05:39:12.428928,15.25245028,.00108299,97.5090,195.1187,226.2991,133.7350,0,U,57192,999,15880,.14547439E-3,.3587E-4,0
SITRO-AIS 8 (ANOKHIN),2023-091AD,2026-05-12T06:49:55.024032,15.31147839,.00099738,97.5078,197.3104,217.4754,142.5792,0,U,57193,999,15895,.25037608E-3,.7465E-4,0
SITRO-AIS 7 (FARTUSHNIY),2023-091AE,2026-05-12T05:33:27.053568,15.24951347,.0010639,97.5088,194.9577,227.5737,132.4601,0,U,57194,999,15879,.14299461E-3,.3493E-4,0
SITRO-AIS 10 (BURDAEV),2023-091AK,2026-05-12T06:24:54.033984,15.37234763,.0006975,97.5098,201.9885,188.4128,171.7000,0,U,57199,999,15924,.29741188E-3,.10773E-3,0
SITRO-AIS 9 (SHCHUKIN),2023-091AM,2026-05-12T06:47:12.697440,15.36782341,.00071747,97.5097,201.7613,189.2026,170.9088,0,U,57201,999,15923,.31850616E-3,.11377E-3,0
SITRO-AIS 12 (SMIRENNIY),2023-091AQ,2026-05-12T06:43:21.535968,15.37066751,.0006996,97.5109,202.2036,183.1069,177.0133,0,U,57204,999,15925,.32322781E-3,.11653E-3,0
SITRO-AIS 11 (SHEFFER),2023-091AU,2026-05-12T05:42:39.742272,15.37457248,.00069084,97.5107,202.3854,182.9908,177.1296,0,U,57208,999,15926,.3121547E-3,.11393E-3,0
SITRO-AIS 25,2024-039R,2026-05-12T06:15:28.511424,14.93257022,.01474971,95.3921,210.4088,93.7340,268.0764,0,U,59066,999,11936,.22314297E-3,.2859E-4,0
SITRO-AIS 26,2024-039S,2026-05-12T06:10:29.824896,14.93059967,.01478392,95.3924,210.3114,94.2718,267.5416,0,U,59067,999,11935,.22133115E-3,.2823E-4,0
SITRO-AIS 27,2024-039T,2026-05-12T07:18:30.612672,14.93471234,.01470166,95.3923,210.5988,92.8391,268.9671,0,U,59068,999,11938,.27308802E-3,.3522E-4,0
SITRO-AIS 28,2024-039U,2026-05-12T06:47:12.959232,14.93504530,.01467753,95.3924,210.6293,92.7748,269.0287,0,U,59071,999,11938,.25297663E-3,.3261E-4,0
GRBBETA,2024-128C,2026-05-12T04:16:52.689504,15.06337354,.00453867,61.9909,342.5749,127.2263,233.2985,0,U,60237,999,10084,.18359103E-3,.2553E-4,0
OOV-CUBE (TUBSAT-30),2024-128F,2026-05-12T04:31:38.532288,15.02586412,.00489935,61.9951,351.0812,125.9073,234.6581,0,U,60240,999,10070,.12463879E-3,.1492E-4,0
ROBUSTA-3A (MEDITERRANEE),2024-128J,2026-05-12T06:37:45.803712,15.11100173,.00461205,61.9874,335.1828,121.0354,239.5282,0,U,60243,999,10099,.28967023E-3,.4771E-4,0
LASARSAT,2024-247Q,2026-05-12T06:57:44.760096,15.44128926,.00046675,44.9738,103.5696,113.9002,246.2377,0,U,62391,999,7776,.42777548E-3,.19719E-3,0
CROCUBE,2024-247T,2026-05-12T06:19:19.481952,15.45711694,.00043392,44.9711,101.5870,116.0555,244.0782,0,U,62394,999,7778,.46456976E-3,.22659E-3,0
FORESAIL-1 PRIME,2025-276DS,2026-05-11T14:55:51.831552,15.18360338,.00016791,97.4208,205.5700,192.8130,167.3062,0,U,66778,999,2485,.15972154E-3,.3214E-4,0
KNACKSAT-2,1998-067XZ,2026-05-12T05:53:18.302208,15.56836313,.00125759,51.6275,114.8101,65.8017,294.4288,0,U,67683,999,1467,.38703354E-3,.28003E-3,0
