SIRION PATHFINDER-2     
1 43759U 18099B   26132.03819396  .00002842  00000+0  15899-3 0  9998
2 43759  97.4283 181.9589 0010281  70.4828 289.7514 15.14209722407151
CORVUS BC4              
1 43767U 18099K   26132.06229446  .00002970  00000+0  17556-3 0  9995
2 43767  97.4099 176.1031 0009863 121.2302 238.9897 15.12194262406945
M2 PATHFINDER           
1 45727U 20037E   26132.26722654  .00001766  00000+0  13056-3 0  9992
2 45727  97.8166 323.0973 0010178 274.9871  85.0192 15.04516963320095
NETSAT-4                
1 46504U 20068U   26132.26758259  .00010940  00000+0  25303-3 0  9992
2 46504  97.8618 137.6580 0007640  92.2632 267.9489 15.42654533310233
NETSAT-3                
1 46505U 20068V   26132.24567249  .00011245  00000+0  27085-3 0  9996
2 46505  97.8668 135.8982 0007528 104.9461 255.2619 15.41423826310144
NETSAT-1                
1 46506U 20068W   26132.26252604  .00008205  00000+0  25389-3 0  9992
2 46506  97.8752 130.6611 0006722 124.0395 236.1485 15.33752446309797
NETSAT-2                
1 46507U 20068X   26132.28826124  .00014094  00000+0  30627-3 0  9993
2 46507  97.8634 137.4542 0006179 112.8559 247.3341 15.44454364310199
GREENCUBE (IO-117)      
1 53109U 22080E   26131.92101528 -.00000003  00000+0  00000+0 0  9993
2 53109  70.1440 310.8630 0008864 297.9634  62.0128  6.42583324 89736
SITRO-AIS 5 (KATYS)     
1 57176U 23091L   26132.27203779  .00007090  00000+0  25708-3 0  9992
2 57176  97.5083 195.8504 0010667 222.3983 137.6433 15.28615198158851
SITRO-AIS 6 (CHIRKIN)   
1 57192U 23091AC  26132.23556052  .00003587  00000+0  14547-3 0  9997
2 57192  97.5090 195.1187 0010829 226.2991 133.7350 15.25245028158807
SITRO-AIS 8 (ANOKHIN)   
1 57193U 23091AD  26132.28466463  .00007465  00000+0  25038-3 0  9995
2 57193  97.5078 197.3104 0009973 217.4754 142.5792 15.31147839158956
SITRO-AIS 7 (FARTUSHNIY)
1 57194U 23091AE  26132.23156312  .00003493  00000+0  14299-3 0  9994
2 57194  97.5088 194.9577 0010639 227.5737 132.4601 15.24951347158797
SITRO-AIS 10 (BURDAEV)  
1 57199U 23091AK  26132.26729206  .00010773  00000+0  29741-3 0  9997
2 57199  97.5098 201.9885 0006975 188.4128 171.7000 15.37234763159241
SITRO-AIS 9 (SHCHUKIN)  
1 57201U 23091AM  26132.28278585  .00011377  00000+0  31851-3 0  9998
2 57201  97.5097 201.7613 0007174 189.2026 170.9088 15.36782341159234
SITRO-AIS 12 (SMIRENNIY)
1 57204U 23091AQ  26132.28011037  .00011653  00000+0  32323-3 0  9990
2 57204  97.5109 202.2036 0006996 183.1069 177.0133 15.37066751159259
SITRO-AIS 11 (SHEFFER)  
1 57208U 23091AU  26132.23795998  .00011393  00000+0  31215-3 0  9994
2 57208  97.5107 202.3854 0006908 182.9908 177.1296 15.37457248159269
SITRO-AIS 25            
1 59066U 24039R   26132.26074666  .00002859  00000+0  22314-3 0  9993
2 59066  95.3921 210.4088 0147497  93.7340 268.0764 14.93257022119366
SITRO-AIS 26            
1 59067U 24039S   26132.25728964  .00002823  00000+0  22133-3 0  9990
2 59067  95.3924 210.3114 0147839  94.2718 267.5416 14.93059967119359
SITRO-AIS 27            
1 59068U 24039T   26132.30452098  .00003522  00000+0  27309-3 0  9996
2 59068  95.3923 210.5988 0147016  92.8391 268.9671 14.93471234119384
SITRO-AIS 28            
1 59071U 24039U   26132.28278888  .00003261  00000+0  25298-3 0  9995
2 59071  95.3924 210.6293 0146775  92.7748 269.0287 14.93504530119386
GRBBETA                 
1 60237U 24128C   26132.17838761  .00002553  00000+0  18359-3 0  9993
2 60237  61.9909 342.5749 0045386 127.2263 233.2985 15.06337354100849
OOV-CUBE (TUBSAT-30)    
1 60240U 24128F   26132.18864042  .00001492  00000+0  12464-3 0  9991
2 60240  61.9951 351.0812 0048993 125.9073 234.6581 15.02586412100706
ROBUSTA-3A (MEDITERRAN*)
1 60243U 24128J   26132.27622458  .00004771  00000+0  28967-3 0  9995
2 60243  61.9874 335.1828 0046120 121.0354 239.5282 15.11100173100991
LASARSAT                
1 62391U 24247Q   26132.29010139  .00019719  00000+0  42778-3 0  9996
2 62391  44.9738 103.5696 0004667 113.9002 246.2377 15.44128926 77767
CROCUBE                 
1 62394U 24247T   26132.26341993  .00022659  00000+0  46457-3 0  9996
2 62394  44.9711 101.5870 0004339 116.0555 244.0782 15.45711694 77785
FORESAIL-1 PRIME        
1 66778U 25276DS  26131.62212768  .00003214  00000+0  15972-3 0  9999
2 66778  97.4208 205.5700 0001679 192.8130 167.3062 15.18360338 24854
KNACKSAT-2              
1 67683U 98067XZ  26132.24535072  .00028003  00000+0  38703-3 0  9998
2 67683  51.6275 114.8101 0012575  65.8017 294.4288 15.56836313 14677
